[{"OBJECT_NAME":"STARLINK-6227","OBJECT_ID":"2023-088N","EPOCH":"2026-03-09T03:28:55.173792","MEAN_MOTION":15.02534471,"ECCENTRICITY":0.00012564,"INCLINATION":43.0035,"RA_OF_ASC_NODE":110.7838,"ARG_OF_PERICENTER":277.6111,"MEAN_ANOMALY":82.4589,"EPHEMERIS_TYPE":0,"CLASSIFICATION_TYPE":"U","NORAD_CAT_ID":57060,"ELEMENT_SET_NO":999,"REV_AT_EPOCH":15028,"BSTAR":-1.5274985e-5,"MEAN_MOTION_DOT":-4.1e-6,"MEAN_MOTION_DDOT":0},{"OBJECT_NAME":"SPOT 2","OBJECT_ID":"1990-005A","EPOCH":"2026-03-09T21:55:30.289728","MEAN_MOTION":14.73729036,"ECCENTRICITY":0.01297919,"INCLINATION":98.6985,"RA_OF_ASC_NODE":218.7434,"ARG_OF_PERICENTER":40.4901,"MEAN_ANOMALY":320.5875,"EPHEMERIS_TYPE":0,"CLASSIFICATION_TYPE":"U","NORAD_CAT_ID":20436,"ELEMENT_SET_NO":999,"REV_AT_EPOCH":90070,"BSTAR":0.00013767957,"MEAN_MOTION_DOT":9.62e-6,"MEAN_MOTION_DDOT":0}]
